#aV2011 11  5  0  0   .00000000      96 DD+AD WGS84 FIT  NGA
## 1660 518400.00000000   900.00000000 55870  .0000000000000
+   31     1  2  3  4  5  6  7  8  9 10 11 12 13 14 15 16 17
+         18 19 20 21 22 23 25 26 27 28 29 30 31 32  0  0  0
+          0  0  0  0  0  0  0  0  0  0  0  0  0  0  0  0  0
+          0  0  0  0  0  0  0  0  0  0  0  0  0  0  0  0  0
+          0  0  0  0  0  0  0  0  0  0  0  0  0  0  0  0  0
++         0  0  0  0  0  0  0  0  0  0  0  0  0  0  0  0  0
++         0  0  0  0  0  0  0  0  0  0  0  0  0  0  0  0  0
++         0  0  0  0  0  0  0  0  0  0  0  0  0  0  0  0  0
++         0  0  0  0  0  0  0  0  0  0  0  0  0  0  0  0  0
++         0  0  0  0  0  0  0  0  0  0  0  0  0  0  0  0  0
%c cc cc ccc ccc cccc cccc cccc cccc ccccc ccccc ccccc ccccc
%c cc cc ccc ccc cccc cccc cccc cccc ccccc ccccc ccccc ccccc
%f  0.0000000  0.000000000  0.00000000000  0.000000000000000
%f  0.0000000  0.000000000  0.00000000000  0.000000000000000
%i    0    0    0    0      0      0      0      0         0
%i    0    0    0    0      0      0      0      0         0
/*      NGA, ST. LOUIS,MO.                                  
/*   EPHEMERIS COMPUTED FROM  3 DAYS OF DATA                
/* CCCCCCCCCCCCCCCCCCCCCCCCCCCCCCCCCCCCCCCCCCCCCCCCCCCCCCCCC
/* CCCCCCCCCCCCCCCCCCCCCCCCCCCCCCCCCCCCCCCCCCCCCCCCCCCCCCCCC
*  2011 11  5  6 15   .00000000                                                 
P  1 -21723.413270 -11406.193699  10161.398558     75.008755                    
V  1  -7451.349847 -10854.423675 -28067.763896       .234213                    
P  2  11739.684508  21819.188205  10295.285341    364.123658                    
V  2 -11094.993805  -6990.846077  27179.278771       .018234                    
P  3  -6074.322649 -14917.497239 -21570.747300    790.785110                    
V  3  24512.166262  -9989.973022    300.071868       .051446                    
P  4  -1624.066142  18102.981399  19022.314812    281.435027                    
V  4 -18842.656254 -16281.040112  14052.305454       .113366                    
P  5   4381.390319  22124.587242 -13947.113941   -241.084634                    
V  5  -6896.404040  16533.474307  24207.492600      -.050150                    
P  6   -711.273041 -16032.894549 -20999.928262    -37.104467                    
V  6  25974.160828  -7779.281776   5281.348700       .062344                    
P  7 -17591.568607   1298.301509 -19914.975317     35.595313                    
V  7 -16987.045503 -18648.914908  13540.319224       .021354                    
P  8 -10454.747568   9900.407414 -22250.937636       .022309                    
V  8 -18360.323752 -21539.831805  -1510.293716       .000342                    
P  9  21037.845242  14775.670233   6065.813038    116.327280                    
V  9   4570.412275   7367.090830 -31036.654303       .024799                    
P 10  -9289.984300  24450.405399   2944.784329    -18.174690                    
V 10  -2283.347834  -4895.326066  31422.728334      -.010735                    
P 11 -23506.875532 -12684.705393    909.762439   -201.112277                    
V 11   1029.336587  -4930.381940 -29822.096289      -.034604                    
P 12  13508.256473   6541.251596  21930.877649     32.807335                    
V 12  -7838.935321  26636.355826  -2950.545347       .023319                    
P 13 -26201.710142   4621.342522     55.810939    243.075609                    
V 13    -99.820706  -1901.406146  32285.202736      -.019390                    
P 14  15147.087393 -14372.493855  16506.248756    179.870012                    
V 14  20519.620856  -2663.318662 -21519.831731       .016320                    
P 15  19802.936372   6611.506382 -16517.188287   -100.296201                    
V 15 -19574.717885   7732.800466 -20176.086013       .011817                    
P 16  -3365.786993 -21920.349360 -14373.804900   -207.199276                    
V 16   7241.685607 -16982.524358  24463.398536      -.020338                    
P 17 -15613.488202  14803.684323  15558.530515    167.298395                    
V 17 -19546.867063   2443.120102 -22384.160368      -.017742                    
P 18  16001.039351 -13452.878207 -15831.049182    165.564584                    
V 18  -2978.746550  20934.393999 -20730.467384       .018563                    
P 19 -17256.183162  -9695.073085 -17914.756294   -201.614476                    
V 19  21954.623216  -5355.932386 -17921.337065      -.039549                    
P 20 -14949.939580  -5205.932686  21180.302730     55.553046                    
V 20   6199.185695 -26644.133052  -2088.703017       .006686                    
P 21  15922.667016  -5295.625343 -20260.812225   -182.462258                    
V 21  18170.164937  19599.596031   8368.659032      -.024587                    
P 22  10388.909473 -23908.702099  -4596.156435    143.543617                    
V 22   2011.947933   6918.029285 -30377.766377      -.000379                    
P 23 -24853.596926   -750.774419   9860.097397    262.024927                    
V 23  11439.668874  -5177.611377  28161.347496      -.032151                    
P 25  15999.112406  -5958.139491  20311.788294     26.478364                    
V 25  -5418.363790  25287.200898  11699.041588       .014599                    
P 26   8099.989553  13412.026106 -22100.667350   -215.077297                    
V 26 -26049.145508   4942.834379  -6353.686245      -.133398                    
P 27  20297.399532  17447.316278   1337.373061    322.390356                    
V 27   -563.897146   1933.193557 -31898.248348       .039557                    
P 28 -12174.600769  22105.649672  -7321.029588     81.526310                    
V 28    655.273357 -10348.440494 -30403.923348       .031976                    
P 29  26022.191629  -5125.060154   1023.168435    254.635044                    
V 29   -577.711827   3014.015778  31771.256413       .034294                    
P 30   7153.908249 -25166.042514   4322.492343     55.684946                    
V 30   1900.995936   6337.468596  31032.470474      -.085421                    
P 31  -2067.611493 -19464.604102  18051.787918    165.112414                    
V 31  16683.714707  15227.211432  18749.893234       .052410                    
P 32  -9853.512592 -14750.291266  20149.338746   -356.734698                    
V 32   9358.462648 -23123.312368 -12064.423409      -.060121                    
EOF
